[{"OBJECT_NAME":"TRANSPORTER-10 OBJECT AG","OBJECT_ID":"2024-043AG","EPOCH":"2026-03-09T22:12:45.387648","MEAN_MOTION":15.30759727,"ECCENTRICITY":0.00093005,"INCLINATION":97.5471,"RA_OF_ASC_NODE":205.7101,"ARG_OF_PERICENTER":226.5958,"MEAN_ANOMALY":133.4509,"EPHEMERIS_TYPE":0,"CLASSIFICATION_TYPE":"U","NORAD_CAT_ID":59128,"ELEMENT_SET_NO":999,"REV_AT_EPOCH":11192,"BSTAR":0.00032170115,"MEAN_MOTION_DOT":9.498e-5,"MEAN_MOTION_DDOT":0},{"OBJECT_NAME":"STARLINK-31835","OBJECT_ID":"2024-091V","EPOCH":"2026-03-09T07:01:52.770432","MEAN_MOTION":15.30196188,"ECCENTRICITY":0.00012823,"INCLINATION":53.1617,"RA_OF_ASC_NODE":28.7235,"ARG_OF_PERICENTER":92.4836,"MEAN_ANOMALY":267.6311,"EPHEMERIS_TYPE":0,"CLASSIFICATION_TYPE":"U","NORAD_CAT_ID":59772,"ELEMENT_SET_NO":999,"REV_AT_EPOCH":10294,"BSTAR":7.6158103e-5,"MEAN_MOTION_DOT":1.897e-5,"MEAN_MOTION_DDOT":0}]
